TIANWANG 1C (TW-1C)     
1 40926U 15051B   17184.48063689  .00005178  00000-0  11957-3 0  9995
2 40926  97.2287 223.9162 0013816 108.8641 356.8245 15.42879664 99430
TIANWANG 1B (TW-1B)     
1 40927U 15051C   17184.49838500  .00004999  00000-0  11985-3 0  9990
2 40927  97.2374 223.9436 0013320 116.7337 353.1919 15.41770727 99383
TIANWANG 1A (TW-1A)     
1 40928U 15051D   17184.57940036  .00002439  00000-0  71217-4 0  9990
2 40928  97.2260 220.1009 0014009 133.2855  18.3191 15.36191711 99215
LAPAN-A2 (IO-86)        
1 40931U 15052B   17184.52331112  .00000606  00000-0 -46374-5 0  9991
2 40931   5.9968 116.2232 0012692 113.5164 246.6317 14.76531381 95387
LQSAT                   
1 40958U 15057A   17184.55147443  .00000011  00000-0  95808-5 0  9995
2 40958  97.9773 259.5848 0018829  17.8240 342.3626 14.72970481 93530
CHUBUSAT-2              
1 41338U 16012B   17184.59187037  .00000337  00000-0  19734-4 0  9991
2 41338  31.0045   8.0727 0014057 222.5548 137.3999 14.99751387 75459
CHUBUSAT-3              
1 41339U 16012C   17184.58438645  .00000233  00000-0  11464-4 0  9992
2 41339  31.0123   7.2393 0013798 229.0019 130.9423 14.99955387 75438
OUFTI-1                 
1 41458U 16025C   17184.61967661  .00000308  00000-0  21437-4 0  9991
2 41458  98.1834 223.1442 0172569 234.3275 124.1780 15.03206855 65055
E-ST@R-II               
1 41459U 16025D   17184.57581147  .00001341  00000-0  76323-4 0  9990
2 41459  98.1860 223.0427 0174090 234.8633 123.6175 15.03058393 65033
AAUSAT 4                
1 41460U 16025E   17184.49701331  .00001015  00000-0  59057-4 0  9995
2 41460  98.1781 223.0708 0166405 233.2964 125.2859 15.03950449 65041
NUSAT 1 (LO-87)         
1 41557U 16033B   17184.26449621  .00001241  00000-0  49449-4 0  9992
2 41557  97.4629 263.7817 0013013 315.7514  44.2683 15.27087789 60882
BEESAT-4                
1 41619U 16040W   17184.11450871  .00001403  00000-0  66713-4 0  9995
2 41619  97.4614 246.3479 0012519  20.7209 339.4531 15.20794181 45013
PRATHAM                 
1 41783U 16059A   17184.23516269  .00000035  00000-0  16309-4 0  9990
2 41783  98.1659 245.4427 0034969 109.9539 250.5435 14.62841771 40940
ALSAT 1N                
1 41789U 16059G   17184.41546190  .00000063  00000-0  21124-4 0  9994
2 41789  98.1659 246.1527 0029620 103.2097 257.2412 14.64053938 40984
NAYIF-1 (EO-88)         
1 42017U 17008BX  17184.59722442  .00001473  00000-0  65629-4 0  9993
2 42017  97.4942 246.0219 0007372 151.4142 208.7500 15.23020562 20989
LILACSAT-1              
1 42725U 98067ME  17184.60180232  .00009537  00000-0  14449-3 0  9992
2 42725  51.6407 316.2311 0007022  11.8205 348.2950 15.55360455  6051
MAX VALIER SAT          
1 42778U 17036P   17184.60433756  .00000921  00000-0  45483-4 0  9990
2 42778  97.4508 244.2477 0012284 202.3954 157.6746 15.20340247  1527
